BANDWAGON-2 OBJECT D    
1 62380U 24247D   26068.52261193  .00011259  00000+0  40119-3 0  9994
2 62380  44.9954 115.6710 0003488 351.1453   8.9368 15.29076102 67732
STARLINK-33821          
1 63859U 25093Z   26068.05884094  .00032066  00000+0  11695-2 0  9990
2 63859  43.0003  81.5957 0000901 277.1325  82.9424 15.27586901 47852
